$$SOE
2460728.500000000, A.D. 2025-Feb-22 00:00:00.0000, -3.032566298283997E+08, 2.231468735805033E+08, 6.724515228153542E+06,
2460735.500000000, A.D. 2025-Mar-01 00:00:00.0000, -3.078461923066126E+08, 2.135770983666260E+08, 7.788212805342257E+06,
2460742.500000000, A.D. 2025-Mar-08 00:00:00.0000, -3.121517564590122E+08, 2.038103542250694E+08, 8.844722962957308E+06,
2460749.500000000, A.D. 2025-Mar-15 00:00:00.0000, -3.161650236522409E+08, 1.938528271092077E+08, 9.892948219960362E+06,
2460756.500000000, A.D. 2025-Mar-22 00:00:00.0000, -3.198776490644265E+08, 1.837110310208278E+08, 1.093176350144620E+07,
2460763.500000000, A.D. 2025-Mar-29 00:00:00.0000, -3.232812484617991E+08, 1.733918235984731E+08, 1.196001523461734E+07,
2460770.500000000, A.D. 2025-Apr-05 00:00:00.0000, -3.263674044484655E+08, 1.629024233521680E+08, 1.297652039487384E+07,
2460777.500000000, A.D. 2025-Apr-12 00:00:00.0000, -3.291276742419221E+08, 1.522504286457431E+08, 1.398006569643606E+07,
2460784.500000000, A.D. 2025-Apr-19 00:00:00.0000, -3.315535992948738E+08, 1.414438375384938E+08, 1.496940688337778E+07,
2460791.500000000, A.D. 2025-Apr-26 00:00:00.0000, -3.336367166298783E+08, 1.304910682632160E+08, 1.594326809210441E+07,
2460798.500000000, A.D. 2025-May-03 00:00:00.0000, -3.353685719215184E+08, 1.194009803247312E+08, 1.690034129064377E+07,
2460805.500000000, A.D. 2025-May-10 00:00:00.0000, -3.367407344583293E+08, 1.081828961778729E+08, 1.783928580883057E+07,
2460812.500000000, A.D. 2025-May-17 00:00:00.0000, -3.377448141208161E+08, 9.684662337856451E+07, 1.875872797065189E+07,
2460819.500000000, A.D. 2025-May-24 00:00:00.0000, -3.383724803862216E+08, 8.540247707031459E+07, 1.965726082855706E+07,
2460826.500000000, A.D. 2025-May-31 00:00:00.0000, -3.386154831372698E+08, 7.386130301306504E+07, 2.053344400942842E+07,
2460833.500000000, A.D. 2025-Jun-07 00:00:00.0000, -3.384656758803700E+08, 6.223450223051198E+07, 2.138580383256294E+07,
2460840.500000000, A.D. 2025-Jun-14 00:00:00.0000, -3.379150439535035E+08, 5.053405645203882E+07, 2.221283388984410E+07,
2460847.500000000, A.D. 2025-Jun-21 00:00:00.0000, -3.369557367339639E+08, 3.877255089232060E+07, 2.301299574016336E+07,
2460854.500000000, A.D. 2025-Jun-28 00:00:00.0000, -3.355801009439375E+08, 2.696319591624529E+07, 2.378471960973379E+07,
2460861.500000000, A.D. 2025-Jul-05 00:00:00.0000, -3.337807167910550E+08, 1.511984948460231E+07, 2.452640545052601E+07,
2460868.500000000, A.D. 2025-Jul-12 00:00:00.0000, -3.315504383599759E+08, 3.257039265903147E+06, 2.523642443984044E+07,
2460875.500000000, A.D. 2025-Jul-19 00:00:00.0000, -3.288824382900653E+08, -8.610016514347872E+06, 2.591312089980022E+07,
2460882.500000000, A.D. 2025-Jul-26 00:00:00.0000, -3.257702567389003E+08, -2.046538994674597E+07, 2.655481465932725E+07,
2460889.500000000, A.D. 2025-Aug-02 00:00:00.0000, -3.222078547538794E+08, -3.229242647262074E+07, 2.715980390342982E+07,
2460896.500000000, A.D. 2025-Aug-09 00:00:00.0000, -3.181896721884266E+08, -4.407373061713544E+07, 2.772636855779468E+07,
2460903.500000000, A.D. 2025-Aug-16 00:00:00.0000, -3.137106902088714E+08, -5.579115507014036E+07, 2.825277424966267E+07,
2460910.500000000, A.D. 2025-Aug-23 00:00:00.0000, -3.087664981738041E+08, -6.742579374993344E+07, 2.873727687388965E+07,
2460917.500000000, A.D. 2025-Aug-30 00:00:00.0000, -3.033533645689116E+08, -7.895797885386892E+07, 2.917812784692454E+07,
2460924.500000000, A.D. 2025-Sep-06 00:00:00.0000, -2.974683133495230E+08, -9.036728167983040E+07, 2.957358031382371E+07,
2460931.500000000, A.D. 2025-Sep-13 00:00:00.0000, -2.911092072049520E+08, -1.016325205510828E+08, 2.992189630942869E+07,
2460938.500000000, A.D. 2025-Sep-20 00:00:00.0000, -2.842748342106052E+08, -1.127317783961098E+08, 3.022135448655678E+07,
2460945.500000000, A.D. 2025-Sep-27 00:00:00.0000, -2.769649964185086E+08, -1.236424278213767E+08, 3.047025861003182E+07,
2460952.500000000, A.D. 2025-Oct-04 00:00:00.0000, -2.691806018552185E+08, -1.343411641185832E+08, 3.066694707719423E+07,
2460959.500000000, A.D. 2025-Oct-11 00:00:00.0000, -2.609237595824373E+08, -1.448040481518655E+08, 3.080980344068145E+07,
2460966.500000000, A.D. 2025-Oct-18 00:00:00.0000, -2.521978766389459E+08, -1.550065604006009E+08, 3.089726788941728E+07,
2460973.500000000, A.D. 2025-Oct-25 00:00:00.0000, -2.430077556293727E+08, -1.649236671111728E+08, 3.092784966341558E+07,
2460980.500000000, A.D. 2025-Nov-01 00:00:00.0000, -2.333596916084839E+08, -1.745298994341563E+08, 3.090014036600022E+07,
2460987.500000000, A.D. 2025-Nov-08 00:00:00.0000, -2.232615666890505E+08, -1.837994463607004E+08, 3.081282810812332E+07,
2460994.500000000, A.D. 2025-Nov-15 00:00:00.0000, -2.127229404640310E+08, -1.927062621439683E+08, 3.066471237834136E+07,
2461001.500000000, A.D. 2025-Nov-22 00:00:00.0000, -2.017551338635837E+08, -2.012241884036172E+08, 3.045471949987814E+07,
2461008.500000000, A.D. 2025-Nov-29 00:00:00.0000, -1.903713044227096E+08, -2.093270899260374E+08, 3.018191862653411E+07,
2461015.500000000, A.D. 2025-Dec-06 00:00:00.0000, -1.785865128797269E+08, -2.169890041128404E+08, 2.984553828002008E+07,
2461022.500000000, A.D. 2025-Dec-13 00:00:00.0000, -1.664177781712667E+08, -2.241843068871133E+08, 2.944498287615374E+07,
2461029.500000000, A.D. 2025-Dec-20 00:00:00.0000, -1.538841147506884E+08, -2.308878930627327E+08, 2.897984872807328E+07,
2461036.500000000, A.D. 2025-Dec-27 00:00:00.0000, -1.410065507319537E+08, -2.370753671650975E+08, 2.844993953165984E+07,
2461043.500000000, A.D. 2026-Jan-03 00:00:00.0000, -1.278081258540636E+08, -2.427232434067698E+08, 2.785528108758491E+07,
2461050.500000000, A.D. 2026-Jan-10 00:00:00.0000, -1.143138668944110E+08, -2.478091530597212E+08, 2.719613484334388E+07,
2461057.500000000, A.D. 2026-Jan-17 00:00:00.0000, -1.005507383304355E+08, -2.523120563563388E+08, 2.647300985700476E+07,
2461064.500000000, A.D. 2026-Jan-24 00:00:00.0000, -8.654756660626459E+07, -2.562124554595859E+08, 2.568667280153717E+07,
2461071.500000000, A.D. 2026-Jan-31 00:00:00.0000, -7.233493693907000E+07, -2.594926046609011E+08, 2.483815564110503E+07,
2461078.500000000, A.D. 2026-Feb-07 00:00:00.0000, -5.794506219362576E+07, -2.621367136866463E+08, 2.392876062768114E+07,
2461085.500000000, A.D. 2026-Feb-14 00:00:00.0000, -4.341162388130131E+07, -2.641311397393377E+08, 2.296006229126018E+07,
2461092.500000000, A.D. 2026-Feb-21 00:00:00.0000, -2.876958599036593E+07, -2.654645632382451E+08, 2.193390618795623E+07,
2461099.500000000, A.D. 2026-Feb-28 00:00:00.0000, -1.405498464760450E+07, -2.661281417380880E+08, 2.085240442211674E+07,
2461106.500000000, A.D. 2026-Mar-07 00:00:00.0000, 6.953015987007354E+05, -2.661156398692458E+08, 1.971792787603055E+07,
2461113.500000000, A.D. 2026-Mar-14 00:00:00.0000, 1.544380014754205E+07, -2.654235339681819E+08, 1.853309469846326E+07,
2461120.500000000, A.D. 2026-Mar-21 00:00:00.0000, 3.015270895723060E+07, -2.640510854501219E+08, 1.730075522131830E+07,
2461127.500000000, A.D. 2026-Mar-28 00:00:00.0000, 4.478417063618690E+07, -2.620003795996232E+08, 1.602397376836544E+07,
2461134.500000000, A.D. 2026-Apr-04 00:00:00.0000, 5.930055025282615E+07, -2.592763293184175E+08, 1.470600762323499E+07,
2461141.500000000, A.D. 2026-Apr-11 00:00:00.0000, 7.366471176799536E+07, -2.558866437148844E+08, 1.335028347997737E+07,
2461148.500000000, A.D. 2026-Apr-18 00:00:00.0000, 8.784028786388184E+07, -2.518417620496997E+08, 1.196037181279163E+07,
2461155.500000000, A.D. 2026-Apr-25 00:00:00.0000, 1.017919380191959E+08, -2.471547544952192E+08, 1.053995966980438E+07,
2461162.500000000, A.D. 2026-May-02 00:00:00.0000, 1.154855900541847E+08, -2.418411921114303E+08, 9.092822430266455E+06,
2461169.500000000, A.D. 2026-May-09 00:00:00.0000, 1.288886610278025E+08, -2.359189892812899E+08, 7.622795071039572E+06,
2461176.500000000, A.D. 2026-May-16 00:00:00.0000, 1.419702543213693E+08, -2.294082223095600E+08, 6.133743478956655E+06,
2461183.500000000, A.D. 2026-May-23 00:00:00.0000, 1.547013302119324E+08, -2.223309274947443E+08, 4.629536421895251E+06,
2461190.500000000, A.D. 2026-May-30 00:00:00.0000, 1.670548459640067E+08, -2.147108829864672E+08, 3.114018884140193E+06,
2461197.500000000, A.D. 2026-Jun-06 00:00:00.0000, 1.790058641027008E+08, -2.065733824475810E+08, 1.590986957263485E+06,
2461204.500000000, A.D. 2026-Jun-13 00:00:00.0000, 1.905316323655660E+08, -1.979450050126835E+08, 6.416432765677571E+04,
2461211.500000000, A.D. 2026-Jun-20 00:00:00.0000, 2.016116354505028E+08, -1.888533831010302E+08, -1.462819068063721E+06,
2461218.500000000, A.D. 2026-Jun-27 00:00:00.0000, 2.122276181695107E+08, -1.793269725621555E+08, -2.986445884625658E+06,
2461225.500000000, A.D. 2026-Jul-04 00:00:00.0000, 2.223635818937928E+08, -1.693948296135265E+08, -4.503327641276024E+06,
2461232.500000000, A.D. 2026-Jul-11 00:00:00.0000, 2.320057568846898E+08, -1.590863978607579E+08, -6.010218406011216E+06,
2461239.500000000, A.D. 2026-Jul-18 00:00:00.0000, 2.411425532713312E+08, -1.484313079672467E+08, -7.504025909829453E+06,
2461246.500000000, A.D. 2026-Jul-25 00:00:00.0000, 2.497644935702283E+08, -1.374591919855898E+08, -8.981820164261840E+06,
2461253.500000000, A.D. 2026-Aug-01 00:00:00.0000, 2.578641297500564E+08, -1.261995138487242E+08, -1.044083971100268E+07,
2461260.500000000, A.D. 2026-Aug-08 00:00:00.0000, 2.654359479925190E+08, -1.146814169693026E+08, -1.187849568564366E+07,
2461267.500000000, A.D. 2026-Aug-15 00:00:00.0000, 2.724762644064375E+08, -1.029335889196280E+08, -1.329237388367215E+07,
2461274.500000000, A.D. 2026-Aug-22 00:00:00.0000, 2.789831136219078E+08, -9.098414197710113E+07, -1.468023486407816E+07,
2461281.500000000, A.D. 2026-Aug-29 00:00:00.0000, 2.849561304395853E+08, -7.886051056436327E+07, -1.604001220885681E+07,
2461288.500000000, A.D. 2026-Sep-05 00:00:00.0000, 2.903964288648311E+08, -6.658936780625416E+07, -1.736980958695982E+07,
2461295.500000000, A.D. 2026-Sep-12 00:00:00.0000, 2.953064829080636E+08, -5.419655782260619E+07, -1.866789685681860E+07,
$$EOE